NORAD_CAT_ID,OBJECT_NAME,OBJECT_TYPE,EPOCH,MEAN_MOTION,ECCENTRICITY,INCLINATION,RA_OF_ASC_NODE,ARG_OF_PERICENTER,MEAN_ANOMALY,BSTAR,MEAN_MOTION_DOT,MEAN_MOTION_DDOT,TLE_LINE0,TLE_LINE1,TLE_LINE2,SEMIMAJOR_AXIS,PERIOD,APOGEE,PERIGEE,DECAYED
53782.0,STARLINK-4679,PAYLOAD,2023-01-23 15:05:21,15.088449,0.0001324,53.2199,356.6192,93.0566,267.0577,-5.0462e-05,-1.091e-05,0.0,0 STARLINK-4679,1 53782U 22111K   23023.62872284 -.00001091  00000-0 -50462-4 0  9995,2 53782  53.2199 356.6192 0001324  93.0566 267.0577 15.08844900 20620,6917.865,95.437,540.646,538.814,0.0
53782.0,STARLINK-4679,PAYLOAD,2023-01-24 05:23:50,15.08841766,0.0001144,53.2191,353.9425,96.0184,264.0939,-5.27e-05,-1.126e-05,0.0,0 STARLINK-4679,1 53782U 22111K   23024.22488873 -.00001126  00000-0 -52700-4 0  9995,2 53782  53.2191 353.9425 0001144  96.0184 264.0939 15.08841766 20716,6917.875,95.437,540.531,538.9490000000001,0.0
53782.0,STARLINK-4679,PAYLOAD,2023-01-25 05:14:37,15.08845641,0.0001224,53.2186,349.4817,109.1725,250.94,6.7118e-05,7.81e-06,0.0,0 STARLINK-4679,1 53782U 22111K   23025.21848446  .00000781  00000-0  67118-4 0  9994,2 53782  53.2186 349.4817 0001224 109.1725 250.9400 15.08845641 21670,6917.863,95.437,540.575,538.881,0.0
53782.0,STARLINK-4679,PAYLOAD,2023-01-26 03:30:01,15.0883485,0.0001242,53.2187,345.3185,92.3734,267.74,0.00013441,1.852e-05,0.0,0 STARLINK-4679,1 53782U 22111K   23026.14585069  .00001852  00000-0  13441-3 0  9995,2 53782  53.2187 345.3185 0001242  92.3734 267.7400 15.08834850 21000,6917.896,95.438,540.62,538.9019999999999,0.0
53782.0,STARLINK-4679,PAYLOAD,2023-01-27 03:20:48,15.08848088,0.0001262999999999,53.2182,340.8589,84.5315,275.5821,9.059e-07,-2.73e-06,0.0,0 STARLINK-4679,1 53782U 22111K   23027.13944580 -.00000273  00000-0  90590-6 0  9992,2 53782  53.2182 340.8589 0001263  84.5315 275.5821 15.08848088 21152,6917.856,95.437,540.594,538.847,0.0
53782.0,STARLINK-4679,PAYLOAD,2023-01-28 03:11:35,15.08841667,9.56e-05,53.2191,336.4003,82.6341,277.476,-3.0659e-05,-7.76e-06,0.0,0 STARLINK-4679,1 53782U 22111K   23028.13305030 -.00000776  00000-0 -30659-4 0  9991,2 53782  53.2191 336.4003 0000956  82.6341 277.4760 15.08841667 21306,6917.875,95.437,540.4019999999999,539.0790000000001,0.0
53782.0,STARLINK-4679,PAYLOAD,2023-01-28 06:22:21,15.08845209,0.0001085,53.2188,335.8035,87.9088,272.2029,-1.0937e-05,-4.62e-06,0.0,0 STARLINK-4679,1 53782U 22111K   23028.26552681 -.00000462  00000-0 -10937-4 0  9990,2 53782  53.2188 335.8035 0001085  87.9088 272.2029 15.08845209 22139,6917.864,95.437,540.48,538.979,0.0
53782.0,STARLINK-4679,PAYLOAD,2023-01-29 18:56:14,15.08835867,8.51e-05,53.2183,328.9665,75.4328,284.6758,-1.8635e-05,-5.84e-06,0.0,0 STARLINK-4679,1 53782U 22111K   23029.78905455 -.00000584  00000-0 -18635-4 0  9997,2 53782  53.2183 328.9665 0000851  75.4328 284.6758 15.08835867 21555,6917.893,95.438,540.347,539.169,0.0
53782.0,STARLINK-4679,PAYLOAD,2023-01-30 02:53:09,15.08837909,8.71e-05,53.2182,327.4797,77.4814,282.6275,1.9462e-06,-2.57e-06,0.0,0 STARLINK-4679,1 53782U 22111K   23030.12025294 -.00000257  00000-0  19462-5 0  9997,2 53782  53.2182 327.4797 0000871  77.4814 282.6275 15.08837909 22415,6917.887,95.438,540.354,539.149,0.0
53782.0,STARLINK-4679,PAYLOAD,2023-01-30 23:33:10,15.08840694,9.95e-05,53.2181,323.6144,73.4526,286.6575,2.9593e-06,-2.41e-06,0.0,0 STARLINK-4679,1 53782U 22111K   23030.98137232 -.00000241  00000-0  29593-5 0  9996,2 53782  53.2181 323.6144 0000995  73.4526 286.6575 15.08840694 21737,6917.878,95.438,540.432,539.055,0.0
53782.0,STARLINK-4679,PAYLOAD,2023-01-31 04:19:19,15.08846593,0.0001031,53.218,322.7224,75.1249,284.9857,5.9003e-05,6.52e-06,0.0,0 STARLINK-4679,1 53782U 22111K   23031.18008632  .00000652  00000-0  59003-4 0  9993,2 53782  53.2180 322.7224 0001031  75.1249 284.9857 15.08846593 21769,6917.86,95.437,540.438,539.012,0.0
53782.0,STARLINK-4679,PAYLOAD,2023-02-01 02:34:43,15.08844738,0.000114,53.2176,318.5575,113.3869,246.7243,7.1142e-05,8.45e-06,0.0,0 STARLINK-4679,1 53782U 22111K   23032.10744445  .00000845  00000-0  71142-4 0  9997,2 53782  53.2176 318.5575 0001140 113.3869 246.7243 15.08844738 22710,6917.866,95.437,540.52,538.942,0.0
53782.0,STARLINK-4679,PAYLOAD,2023-02-01 21:39:21,15.08840681,0.0001095,53.2183,314.9879,110.5963,249.5147,-5.2842e-05,-1.129e-05,0.0,0 STARLINK-4679,1 53782U 22111K   23032.90233077 -.00001129  00000-0 -52842-4 0  9993,2 53782  53.2183 314.9879 0001095 110.5963 249.5147 15.08840681 22029,6917.878,95.438,540.501,538.986,0.0
53782.0,STARLINK-4679,PAYLOAD,2023-02-02 04:00:53,15.08846989,0.0001196,53.2181,313.7986,94.4627,265.6501,6.1583e-06,-1.9e-06,0.0,0 STARLINK-4679,1 53782U 22111K   23033.16728520 -.00000190  00000-0  61583-5 0  9993,2 53782  53.2181 313.7986 0001196  94.4627 265.6501 15.08846989 22875,6917.859,95.437,540.551,538.897,0.0
53782.0,STARLINK-4679,PAYLOAD,2023-02-03 00:40:54,15.08849152,0.0001346,53.2185,309.9306,100.4123,259.7021,-2.3746e-05,-6.66e-06,0.0,0 STARLINK-4679,1 53782U 22111K   23034.02840287 -.00000666  00000-0 -23746-4 0  9991,2 53782  53.2185 309.9306 0001346 100.4123 259.7021 15.08849152 22199,6917.852,95.437,540.649,538.786,0.0
53782.0,STARLINK-4679,PAYLOAD,2023-02-03 18:10:09,15.08828556,7.26e-05,53.2188,306.6646,77.8947,282.2127,6.959e-05,8.2e-06,0.0,0 STARLINK-4679,1 53782U 22111K   23034.75704997  .00000820  00000-0  69590-4 0  9995,2 53782  53.2188 306.6646 0000726  77.8947 282.2127 15.08828556 22301,6917.915,95.438,540.283,539.278,0.0
53782.0,STARLINK-4679,PAYLOAD,2023-02-04 03:42:27,15.08838517,0.0001034,53.2182,304.8785,94.2118,265.8992,4.2963e-05,3.96e-06,0.0,0 STARLINK-4679,1 53782U 22111K   23035.15448666  .00000396  00000-0  42963-4 0  9991,2 53782  53.2182 304.8785 0001034  94.2118 265.8992 15.08838517 22366,6917.885,95.438,540.465,539.035,0.0
53782.0,STARLINK-4679,PAYLOAD,2023-02-04 13:14:46,15.08834582,0.000123,53.2172,303.0945,98.2534,261.8597,-4.6865e-05,-1.034e-05,0.0,0 STARLINK-4679,1 53782U 22111K   23035.55193258 -.00001034  00000-0 -46865-4 0  9996,2 53782  53.2172 303.0945 0001230  98.2534 261.8597 15.08834582 23230,6917.897,95.438,540.613,538.911,0.0
53782.0,STARLINK-4679,PAYLOAD,2023-02-04 22:47:05,15.08837696,0.0001229,53.2172,301.3103,95.4567,264.6565,-5.5937e-05,-1.178e-05,0.0,0 STARLINK-4679,1 53782U 22111K   23035.94937196 -.00001178  00000-0 -55937-4 0  9995,2 53782  53.2172 301.3103 0001229  95.4567 264.6565 15.08837696 23291,6917.887,95.438,540.603,538.902,0.0
53782.0,STARLINK-4679,PAYLOAD,2023-02-05 13:05:34,15.0882863,0.0001079,53.217,298.6363,84.9352,275.1763,-1.499e-05,-5.26e-06,0.0,0 STARLINK-4679,1 53782U 22111K   23036.54553804 -.00000526  00000-0 -14990-4 0  9992,2 53782  53.2170 298.6363 0001079  84.9352 275.1763 15.08828630 22578,6917.915,95.438,540.527,539.034,0.0
53782.0,STARLINK-4679,PAYLOAD,2023-02-05 22:37:53,15.0883195,9.8e-05,53.2173,296.851,88.9887,271.1218,-1.2742e-05,-4.9e-06,0.0,0 STARLINK-4679,1 53782U 22111K   23036.94297810 -.00000490  00000-0 -12742-4 0  9991,2 53782  53.2173 296.8510 0000980  88.9887 271.1218 15.08831950 23449,6917.905,95.438,540.448,539.092,0.0
53782.0,STARLINK-4679,PAYLOAD,2023-02-06 12:56:21,15.08833131,0.0001062,53.2172,294.1747,94.6469,265.4644,4.0062e-05,3.5e-06,0.0,0 STARLINK-4679,1 53782U 22111K   23037.53913752  .00000350  00000-0  40062-4 0  9996,2 53782  53.2172 294.1747 0001062  94.6469 265.4644 15.08833131 23535,6917.901,95.438,540.501,539.032,0.0
53782.0,STARLINK-4679,PAYLOAD,2023-02-06 20:53:17,15.08836494,0.0001023,53.2171,292.6879,89.6494,270.4615,4.4605e-05,4.22e-06,0.0,0 STARLINK-4679,1 53782U 22111K   23037.87033639  .00000422  00000-0  44605-4 0  9997,2 53782  53.2171 292.6879 0001023  89.6494 270.4615 15.08836494 23586,6917.891,95.438,540.464,539.048,0.0
53782.0,STARLINK-4679,PAYLOAD,2023-02-06 22:28:40,15.08837991,9.95e-05,53.2171,292.3906,87.2987,272.8119,5.8058e-05,6.36e-06,0.0,0 STARLINK-4679,1 53782U 22111K   23037.93657510  .00000636  00000-0  58058-4 0  9998,2 53782  53.2171 292.3906 0000995  87.2987 272.8119 15.08837991 22781,6917.887,95.438,540.44,539.063,0.0
53782.0,STARLINK-4679,PAYLOAD,2023-02-07 03:14:48,15.08850984,0.0001061,53.2173,291.4975,84.7667,275.3447,8.8206e-05,1.117e-05,0.0,0 STARLINK-4679,1 53782U 22111K   23038.13528540  .00001117  00000-0  88206-4 0  9994,2 53782  53.2173 291.4975 0001061  84.7667 275.3447 15.08850984 22814,6917.847,95.437,540.446,538.978,0.0
53782.0,STARLINK-4679,PAYLOAD,2023-02-07 22:19:27,15.08833354,6.52e-05,53.2172,287.9296,96.8654,263.2412,8.2146e-05,1.02e-05,0.0,0 STARLINK-4679,1 53782U 22111K   23038.93017772  .00001020  00000-0  82146-4 0  9992,2 53782  53.2172 287.9296 0000652  96.8654 263.2412 15.08833354 22937,6917.901,95.438,540.217,539.315,0.0
53782.0,STARLINK-4679,PAYLOAD,2023-02-08 22:10:14,15.08840861,0.0001029,53.2167,283.4682,115.3473,244.7626,2.5439e-05,1.17e-06,0.0,0 STARLINK-4679,1 53782U 22111K   23039.92377571  .00000117  00000-0  25439-4 0  9996,2 53782  53.2167 283.4682 0001029 115.3473 244.7626 15.08840861 23894,6917.878,95.438,540.455,539.031,0.0
53782.0,STARLINK-4679,PAYLOAD,2023-02-08 23:45:37,15.0884405,9.92e-05,53.2172,283.1716,90.0059,270.1046,5.0075e-05,5.09e-06,0.0,0 STARLINK-4679,1 53782U 22111K   23039.99001453  .00000509  00000-0  50075-4 0  9995,2 53782  53.2172 283.1716 0000992  90.0059 270.1046 15.08844050 23097,6917.868,95.437,540.419,539.047,0.0
53782.0,STARLINK-4679,PAYLOAD,2023-02-09 22:01:02,15.08831387,8.31e-05,53.2189,279.0079,94.5696,265.5391,-1.8998e-06,-3.18e-06,0.0,0 STARLINK-4679,1 53782U 22111K   23040.91738435 -.00000318  00000-0 -18998-5 0  9995,2 53782  53.2189 279.0079 0000831  94.5696 265.5391 15.08831387 23235,6917.907,95.438,540.347,539.197,0.0
53782.0,STARLINK-4679,PAYLOAD,2023-02-10 01:11:47,15.08838047,9.91e-05,53.217,278.4109,123.272,236.8368,2.8105e-05,1.6e-06,0.0,0 STARLINK-4679,1 53782U 22111K   23041.04985893  .00000160  00000-0  28105-4 0  9995,2 53782  53.2170 278.4109 0000991 123.2720 236.8368 15.08838047 24064,6917.886,95.438,540.437,539.066,0.0
